{
  "type": "FeatureCollection",
  "features": [
    {
      "type": "Feature",
      "properties": {
        "norad_id": 66877,
        "name": "DUMMY PAYLOAD",
        "group": "last-30-days",
        "lat": -6.505941106367101,
        "lon": 83.58231876035916,
        "alt_km": 1257.7857216959756,
        "timestamp": "2025-12-04T17:48:38.965203+00:00",
        "meta_object_name": "DUMMY PAYLOAD",
        "meta_object_id": "2025-282A",
        "meta_epoch": "2025-12-04T12:51:00.172224",
        "meta_mean_motion": 14.38661655,
        "meta_eccentricity": 0.086573,
        "meta_inclination": 56.9568,
        "meta_ra_of_asc_node": 88.607,
        "meta_arg_of_pericenter": 205.995,
        "meta_mean_anomaly": 149.505,
        "meta_ephemeris_type": 0,
        "meta_classification_type": "U",
        "meta_norad_cat_id": 66877,
        "meta_element_set_no": 999,
        "meta_rev_at_epoch": 20,
        "meta_bstar": 0.00015494,
        "meta_mean_motion_dot": 0.00680256,
        "meta_mean_motion_ddot": 7.1965e-06,
        "tle_line1": "1 66877U 25282A   25338.53541866  .00680256  71965-5  15494-3 0  9998",
        "tle_line2": "2 66877  56.9568  88.6070 0865730 205.9950 149.5050 14.38661655   204"
      },
      "geometry": {
        "type": "Point",
        "coordinates": [
          83.58231876035916,
          -6.505941106367101
        ]
      }
    }
  ]
}